NORAD_CAT_ID,OBJECT_NAME,OBJECT_TYPE,EPOCH,MEAN_MOTION,ECCENTRICITY,INCLINATION,RA_OF_ASC_NODE,ARG_OF_PERICENTER,MEAN_ANOMALY,BSTAR,MEAN_MOTION_DOT,MEAN_MOTION_DDOT,TLE_LINE0,TLE_LINE1,TLE_LINE2,SEMIMAJOR_AXIS,PERIOD,APOGEE,PERIGEE,DECAYED
51469.0,STARLINK-3182,PAYLOAD,2024-05-12 20:25:39,15.08771473,0.0001684,53.217,28.1906,82.7516,277.3667,0.0029298,0.00046561,0.0,0 STARLINK-3182,1 51469U 22010P   24133.85115545  .00046561  00000-0  29298-2 0  9991,2 51469  53.2170  28.1906 0001684  82.7516 277.3667 15.08771473126807,6918.09,95.442,541.12,538.79,0.0
51469.0,STARLINK-3182,PAYLOAD,2024-05-12 22:01:03,15.08784985,0.0001711,53.2171,27.8931,84.2341,275.8846,0.0028481,0.00045263,0.0,0 STARLINK-3182,1 51469U 22010P   24133.91739725  .00045263  00000-0  28481-2 0  9991,2 51469  53.2171  27.8931 0001711  84.2341 275.8846 15.08784985126316,6918.049,95.441,541.097,538.73,0.0
51469.0,STARLINK-3182,PAYLOAD,2024-05-13 02:47:12,15.08821412,0.0001616,53.2173,26.9994,92.36,267.7577,0.0016012,0.00025274,0.0,0 STARLINK-3182,1 51469U 22010P   24134.11611889  .00025274  00000-0  16012-2 0  9991,2 51469  53.2173  26.9994 0001616  92.3600 267.7577 15.08821412126845,6917.937,95.439,540.92,538.684,0.0
51469.0,STARLINK-3182,PAYLOAD,2024-05-14 02:37:58,15.08900452,0.000146,53.2175,22.5393,93.1969,266.919,0.0021151,0.0003359,0.0,0 STARLINK-3182,1 51469U 22010P   24135.10970065  .00033590  00000-0  21151-2 0  9995,2 51469  53.2175  22.5393 0001460  93.1969 266.9190 15.08900452126996,6917.696,95.434,540.571,538.551,0.0
51469.0,STARLINK-3182,PAYLOAD,2024-05-14 08:59:29,15.0890955,0.0001447,53.2173,21.3495,91.8892,268.2266,0.0017244,0.00027315,0.0,0 STARLINK-3182,1 51469U 22010P   24135.37464982  .00027315  00000-0  17244-2 0  9996,2 51469  53.2173  21.3495 0001447  91.8892 268.2266 15.08909550126536,6917.668,95.433,540.534,538.532,0.0
51469.0,STARLINK-3182,PAYLOAD,2024-05-14 23:17:56,15.08903762,0.0001793,53.2189,18.677,107.1193,252.9995,0.00095508,0.00014971,0.0,0 STARLINK-3182,1 51469U 22010P   24135.97078899  .00014971  00000-0  95508-3 0  9994,2 51469  53.2189  18.6770 0001793 107.1193 252.9995 15.08903762126625,6917.686,95.434,540.791,538.31,0.0
51469.0,STARLINK-3182,PAYLOAD,2024-05-15 08:50:13,15.08918905,0.0001751,53.2189,16.8901,69.8472,290.2708,0.001137,0.00017893,0.0,0 STARLINK-3182,1 51469U 22010P   24136.36821005  .00017893  00000-0  11370-2 0  9993,2 51469  53.2189  16.8901 0001751  69.8472 290.2708 15.08918905126687,6917.639,95.433,540.715,538.293,0.0
51469.0,STARLINK-3182,PAYLOAD,2024-05-15 21:33:18,15.08842806,0.0001664,53.2184,14.508,58.3423,301.7732,0.00094644,0.00014808,0.0,0 STARLINK-3182,1 51469U 22010P   24136.89813316  .00014808  00000-0  94644-3 0  9996,2 51469  53.2184  14.5080 0001664  58.3423 301.7732 15.08842806127263,6917.872,95.437,540.888,538.586,0.0
51469.0,STARLINK-3182,PAYLOAD,2024-05-15 23:08:41,15.08851355,0.0001249,53.2168,14.2141,73.686,286.427,0.0016806,0.00026568,0.0,0 STARLINK-3182,1 51469U 22010P   24136.96437160  .00026568  00000-0  16806-2 0  9992,2 51469  53.2168  14.2141 0001249  73.6860 286.4270 15.08851355126774,6917.846,95.437,540.575,538.847,0.0
51469.0,STARLINK-3182,PAYLOAD,2024-05-17 08:31:45,15.08884496,0.000112,53.2153,7.9678,66.5316,293.5794,0.00097763,0.00015324,0.0,0 STARLINK-3182,1 51469U 22010P   24138.35539200  .00015324  00000-0  97763-3 0  9995,2 51469  53.2153   7.9678 0001120  66.5316 293.5794 15.08884496127488,6917.744,95.435,540.384,538.835,0.0
51469.0,STARLINK-3182,PAYLOAD,2024-05-17 21:14:50,15.08865367,6.25e-05,53.2176,5.5878,69.0835,291.0224,0.00088439,0.00013825,0.0,0 STARLINK-3182,1 51469U 22010P   24138.88530242  .00013825  00000-0  88439-3 0  9994,2 51469  53.2176   5.5878 0000625  69.0835 291.0224 15.08865367127568,6917.803,95.436,540.1,539.235,0.0
51469.0,STARLINK-3182,PAYLOAD,2024-05-17 22:50:13,15.08873494,0.0001179,53.2162,5.2919,92.5646,267.5481,0.00037594,5.706e-05,0.0,0 STARLINK-3182,1 51469U 22010P   24138.95154159  .00005706  00000-0  37594-3 0  9996,2 51469  53.2162   5.2919 0001179  92.5646 267.5481 15.08873494127071,6917.778,95.435,540.459,538.827,0.0
51469.0,STARLINK-3182,PAYLOAD,2024-05-18 00:25:36,15.08857732,0.0001361,53.2163,4.9944,82.5668,277.5479,-0.0002548,-4.343e-05,0.0,0 STARLINK-3182,1 51469U 22010P   24139.01778260 -.00004343  00000-0 -25480-3 0  9998,2 51469  53.2163   4.9944 0001361  82.5668 277.5479 15.08857732127583,6917.826,95.436,540.633,538.75,0.0
51469.0,STARLINK-3182,PAYLOAD,2024-05-18 14:44:05,15.0879491,0.0001163,53.2177,2.3175,102.6035,257.5087,-0.001638,-0.0002623,0.0,0 STARLINK-3182,1 51469U 22010P   24139.61395562 -.00026230  00000-0 -16380-2 0  9991,2 51469  53.2177   2.3175 0001163 102.6035 257.5087 15.08794910127174,6918.018,95.44,540.688,539.079,0.0
51469.0,STARLINK-3182,PAYLOAD,2024-05-18 21:05:38,15.08801323,0.0001196,53.2172,1.1286,110.7967,249.3153,-0.00066628,-0.00010865,0.0,0 STARLINK-3182,1 51469U 22010P   24139.87892191 -.00010865  00000-0 -66628-3 0  9997,2 51469  53.2172   1.1286 0001196 110.7967 249.3153 15.08801323127719,6917.999,95.44,540.691,539.036,0.0
51469.0,STARLINK-3182,PAYLOAD,2024-05-19 00:16:25,15.08811987,0.0001414,53.2203,0.5301,123.9638,236.1488,6.7567e-05,7.87e-06,0.0,0 STARLINK-3182,1 51469U 22010P   24140.01140348  .00000787  00000-0  67567-4 0  9999,2 51469  53.2203   0.5301 0001414 123.9638 236.1488 15.08811987127733,6917.966,95.439,540.809,538.853,0.0
51469.0,STARLINK-3182,PAYLOAD,2024-05-19 14:34:54,15.08834034,0.0001304,53.2188,357.8574,104.0596,256.0542,0.0012976,0.0002042,0.0,0 STARLINK-3182,1 51469U 22010P   24140.60757105  .00020420  00000-0  12976-2 0  9997,2 51469  53.2188 357.8574 0001304 104.0596 256.0542 15.08834034127321,6917.899,95.438,540.666,538.862,0.0
51469.0,STARLINK-3182,PAYLOAD,2024-05-19 20:56:26,15.08830493,0.0001239,53.2171,356.668,105.6509,254.462,0.00071121,0.00011046,0.0,0 STARLINK-3182,1 51469U 22010P   24140.87253383  .00011046  00000-0  71121-3 0  9997,2 51469  53.2171 356.6680 0001239 105.6509 254.4620 15.08830493127869,6917.909,95.438,540.632,538.917,0.0
51469.0,STARLINK-3182,PAYLOAD,2024-05-20 00:07:13,15.0883137,0.0001235,53.2171,356.0731,105.6406,254.4722,0.00062767,9.713e-05,0.0,0 STARLINK-3182,1 51469U 22010P   24141.00501402  .00009713  00000-0  62767-3 0  9995,2 51469  53.2171 356.0731 0001235 105.6406 254.4722 15.08831370127387,6917.907,95.438,540.626,538.917,0.0
51469.0,STARLINK-3182,PAYLOAD,2024-05-20 20:47:14,15.0882798,0.0001475,53.2179,352.2055,121.3466,238.7671,0.00024491,3.611e-05,0.0,0 STARLINK-3182,1 51469U 22010P   24141.86614195  .00003611  00000-0  24491-3 0  9996,2 51469  53.2179 352.2055 0001475 121.3466 238.7671 15.08827980128010,6917.917,95.438,540.803,538.762,0.0
51469.0,STARLINK-3182,PAYLOAD,2024-05-21 01:33:24,15.08830348,0.0001264,53.2172,351.3127,106.9868,253.1262,0.00033126,4.987e-05,0.0,0 STARLINK-3182,1 51469U 22010P   24142.06486303  .00004987  00000-0  33126-3 0  9999,2 51469  53.2172 351.3127 0001264 106.9868 253.1262 15.08830348127540,6917.91,95.438,540.649,538.9,0.0
51469.0,STARLINK-3182,PAYLOAD,2024-05-21 19:02:38,15.08832876,0.0001269,53.2166,348.04,79.8158,280.2977,0.0001436,1.998e-05,0.0,0 STARLINK-3182,1 51469U 22010P   24142.79350566  .00001998  00000-0  14360-3 0  9998,2 51469  53.2166 348.0400 0001269  79.8158 280.2977 15.08832876127659,6917.902,95.438,540.645,538.889,0.0
51469.0,STARLINK-3182,PAYLOAD,2024-05-22 22:04:12,15.08833025,0.0001439,53.2171,342.9874,66.9075,293.2069,0.00035385,5.347e-05,0.0,0 STARLINK-3182,1 51469U 22010P   24143.91958906  .00005347  00000-0  35385-3 0  9997,2 51469  53.2171 342.9874 0001439  66.9075 293.2069 15.08833025128325,6917.902,95.438,540.762,538.771,0.0
51469.0,STARLINK-3182,PAYLOAD,2024-05-23 20:19:35,15.08843545,0.0001359,53.2172,338.8237,77.9863,282.1281,7.0282e-05,8.31e-06,0.0,0 STARLINK-3182,1 51469U 22010P   24144.84694190  .00000831  00000-0  70282-4 0  9991,2 51469  53.2172 338.8237 0001359  77.9863 282.1281 15.08843545127961,6917.87,95.437,540.675,538.794,0.0
51469.0,STARLINK-3182,PAYLOAD,2024-05-23 23:30:21,15.08845118,0.0001398,53.2175,338.2297,100.8672,259.2478,8.4122e-05,1.051e-05,0.0,0 STARLINK-3182,1 51469U 22010P   24144.97941974  .00001051  00000-0  84122-4 0  9993,2 51469  53.2175 338.2297 0001398 100.8672 259.2478 15.08845118128480,6917.865,95.437,540.697,538.763,0.0
51469.0,STARLINK-3182,PAYLOAD,2024-05-24 20:10:22,15.08841772,0.0001356,53.2179,334.3627,112.4563,247.6573,7.9592e-05,9.79e-06,0.0,0 STARLINK-3182,1 51469U 22010P   24145.84054245  .00000979  00000-0  79592-4 0  9999,2 51469  53.2179 334.3627 0001356 112.4563 247.6573 15.08841772128614,6917.875,95.437,540.678,538.802,0.0
51469.0,STARLINK-3182,PAYLOAD,2024-05-25 05:42:41,15.08844632,0.0001157,53.2179,332.5779,91.0574,269.055,9.3948e-05,1.208e-05,0.0,0 STARLINK-3182,1 51469U 22010P   24146.23797819  .00001208  00000-0  93948-4 0  9991,2 51469  53.2179 332.5779 0001157  91.0574 269.0550 15.08844632128177,6917.866,95.437,540.532,538.931,0.0
51469.0,STARLINK-3182,PAYLOAD,2024-05-26 11:55:02,15.08830199,0.0001302,53.2175,326.9323,105.4681,254.6455,3.4568e-05,2.62e-06,0.0,0 STARLINK-3182,1 51469U 22010P   24147.49655352  .00000262  00000-0  34568-4 0  9997,2 51469  53.2175 326.9323 0001302 105.4681 254.6455 15.08830199128869,6917.91,95.438,540.676,538.875,0.0
51469.0,STARLINK-3182,PAYLOAD,2024-05-26 21:27:20,15.08840835,0.0001165,53.2177,325.1473,95.4286,264.6839,4.372e-05,4.08e-06,0.0,0 STARLINK-3182,1 51469U 22010P   24147.89398637  .00000408  00000-0  43720-4 0  9993,2 51469  53.2177 325.1473 0001165  95.4286 264.6839 15.08840835128421,6917.878,95.438,540.549,538.937,0.0
51469.0,STARLINK-3182,PAYLOAD,2024-05-27 18:07:21,15.0883903,0.0001223,53.2178,321.2811,87.1227,272.9905,0.00012232,1.659e-05,0.0,0 STARLINK-3182,1 51469U 22010P   24148.75510655  .00001659  00000-0  12232-3 0  9997,2 51469  53.2178 321.2811 0001223  87.1227 272.9905 15.08839030128558,6917.883,95.438,540.594,538.902,0.0
